[
  {
    "name": "ONEWEB-0379",
    "noradId": "49305",
    "line1": "1 49305U 21090AC  26182.27187758  .00000014  00000+0  22934-5 0  9996",
    "line2": "2 49305  87.8973 286.9017 0001876  97.8278 262.3064 13.14502489229419"
  },
  {
    "name": "ONEWEB-0380",
    "noradId": "49306",
    "line1": "1 49306U 21090AD  26182.89359382  .00000059  00000+0  11563-3 0  9992",
    "line2": "2 49306  87.9180 302.0422 0002044  95.3558 264.7808 13.19725566228366"
  },
  {
    "name": "ONEWEB-0381",
    "noradId": "49307",
    "line1": "1 49307U 21090AE  26182.24970996  .00000081  00000+0  16787-3 0  9990",
    "line2": "2 49307  87.9196 271.6389 0001937  93.1030 267.0325 13.20773426231687"
  },
  {
    "name": "ONEWEB-0382",
    "noradId": "49308",
    "line1": "1 49308U 21090AF  26182.69079154  .00000076  00000+0  15454-3 0  9990",
    "line2": "2 49308  87.9196 271.5446 0001811  92.9465 267.1876 13.20771313231732"
  },
  {
    "name": "ONEWEB-0383",
    "noradId": "49309",
    "line1": "1 49309U 21090AG  26182.26553827  .00000149  00000+0  36626-3 0  9993",
    "line2": "2 49309  87.8975 286.8948 0001806  98.3166 261.8169 13.14502326229445"
  },
  {
    "name": "ONEWEB-0384",
    "noradId": "49310",
    "line1": "1 49310U 21090AH  26182.67877093  .00024357  00000+0  59472-1 0  9993",
    "line2": "2 49310  87.9270 271.5869 0000971  36.4109 323.7090 13.21045332231745"
  },
  {
    "name": "ONEWEB-0385",
    "noradId": "49311",
    "line1": "1 49311U 21090AJ  26182.68404148  .00000056  00000+0  10504-3 0  9997",
    "line2": "2 49311  87.9195 271.5515 0001921  94.8430 265.2923 13.20773512231710"
  },
  {
    "name": "ONEWEB-0386",
    "noradId": "49312",
    "line1": "1 49312U 21090AK  26182.24634806 -.00000004  00000+0 -40556-4 0  9992",
    "line2": "2 49312  87.9197 271.6301 0001819  95.2621 264.8720 13.20772564231671"
  },
  {
    "name": "ONEWEB-0387",
    "noradId": "49313",
    "line1": "1 49313U 21090AL  26182.68572791  .00000036  00000+0  56863-4 0  9996",
    "line2": "2 49313  87.9189 271.5628 0002224  91.2317 268.9072 13.20773482231735"
  },
  {
    "name": "ONEWEB-0388",
    "noradId": "49314",
    "line1": "1 49314U 21090AM  26182.88885376  .00000043  00000+0  74572-4 0  9990",
    "line2": "2 49314  87.9185 302.0416 0001843  96.8954 263.2388 13.19725370228354"
  },
  {
    "name": "ONEWEB-0389",
    "noradId": "50469",
    "line1": "1 50469U 21132A   26182.93033350  .00000035  00000+0  56056-4 0  9991",
    "line2": "2 50469  87.9131   2.9343 0001958  79.2246 280.9106 13.17649271220022"
  },
  {
    "name": "ONEWEB-0390",
    "noradId": "50470",
    "line1": "1 50470U 21132B   26182.93202059  .00000107  00000+0  24298-3 0  9999",
    "line2": "2 50470  87.9132   2.9352 0002091  92.5839 267.5532 13.17649878220027"
  },
  {
    "name": "ONEWEB-0391",
    "noradId": "50471",
    "line1": "1 50471U 21132C   26182.93370875  .00000016  00000+0  87382-5 0  9996",
    "line2": "2 50471  87.9137   2.9446 0002448  75.0208 285.1195 13.17649630220026"
  },
  {
    "name": "ONEWEB-0392",
    "noradId": "50472",
    "line1": "1 50472U 21132D   26182.88815237  .00000033  00000+0  50776-4 0  9992",
    "line2": "2 50472  87.9144   2.9232 0002013  79.8050 280.3309 13.17650333220052"
  },
  {
    "name": "ONEWEB-0393",
    "noradId": "50473",
    "line1": "1 50473U 21132E   26182.93960213  .00000037  00000+0  63031-4 0  9996",
    "line2": "2 50473  87.9135   2.9289 0001914  85.2928 274.8422 13.17650390220056"
  },
  {
    "name": "ONEWEB-0394",
    "noradId": "50474",
    "line1": "1 50474U 21132F   26182.89401631 -.00000026  00000+0 -98884-4 0  9990",
    "line2": "2 50474  87.9182 332.5163 0001735  91.5927 268.5404 13.18688242223536"
  },
  {
    "name": "ONEWEB-0395",
    "noradId": "50475",
    "line1": "1 50475U 21132G   26182.81602154 -.00000185  00000+0 -55833-3 0  9998",
    "line2": "2 50475  87.8878  18.1542 0002083  87.0389 273.0978 13.11418511217639"
  },
  {
    "name": "ONEWEB-0396",
    "noradId": "50476",
    "line1": "1 50476U 21132H   26182.88728965 -.00000037  00000+0 -12569-3 0  9990",
    "line2": "2 50476  87.9185 332.5307 0001782  89.5464 270.5872 13.18685585223579"
  },
  {
    "name": "ONEWEB-0397",
    "noradId": "50477",
    "line1": "1 50477U 21132J   26182.90246339  .00000075  00000+0  15816-3 0  9992",
    "line2": "2 50477  87.9184 332.5284 0001659  90.2903 269.8419 13.18686028223552"
  },
  {
    "name": "ONEWEB-0398",
    "noradId": "50478",
    "line1": "1 50478U 21132K   26182.93640313 -.00000160  00000+0 -48776-3 0  9994",
    "line2": "2 50478  87.8884  18.1220 0002126  92.4092 267.7280 13.11413141217541"
  },
  {
    "name": "ONEWEB-0399",
    "noradId": "50479",
    "line1": "1 50479U 21132L   26182.92284691  .00000399  00000+0  10893-2 0  9997",
    "line2": "2 50479  87.8886  18.1355 0001831  72.7502 287.3826 13.11415591217536"
  },
  {
    "name": "ONEWEB-0400",
    "noradId": "50480",
    "line1": "1 50480U 21132M   26182.88054474 -.00000044  00000+0 -14503-3 0  9990",
    "line2": "2 50480  87.9186 332.5218 0002027  97.4585 262.6777 13.18685982223545"
  },
  {
    "name": "ONEWEB-0401",
    "noradId": "50481",
    "line1": "1 50481U 21132N   26182.92607193 -.00000044  00000+0 -14559-3 0  9999",
    "line2": "2 50481  87.9189 332.5102 0001649  98.3974 261.7346 13.18685214223553"
  },
  {
    "name": "ONEWEB-0402",
    "noradId": "50482",
    "line1": "1 50482U 21132P   26182.88897497  .00000035  00000+0  56062-4 0  9997",
    "line2": "2 50482  87.9185 332.5064 0001355  95.7893 264.3394 13.18686759223571"
  },
  {
    "name": "ONEWEB-0403",
    "noradId": "50483",
    "line1": "1 50483U 21132Q   26182.91426895  .00000030  00000+0  42489-4 0  9995",
    "line2": "2 50483  87.9185 332.5259 0001893  90.6565 269.4784 13.18685592223534"
  },
  {
    "name": "ONEWEB-0404",
    "noradId": "50484",
    "line1": "1 50484U 21132R   26182.90418335  .00000171  00000+0  44776-3 0  9991",
    "line2": "2 50484  87.8883  18.1369 0002040  80.3327 279.8032 13.11418124217627"
  },
  {
    "name": "ONEWEB-0405",
    "noradId": "50485",
    "line1": "1 50485U 21132S   26182.92774098 -.00000074  00000+0 -22021-3 0  9998",
    "line2": "2 50485  87.9187 332.5083 0002285 102.0723 258.0665 13.18686593223931"
  },
  {
    "name": "ONEWEB-0406",
    "noradId": "50486",
    "line1": "1 50486U 21132T   26182.91932465  .00000021  00000+0  19312-4 0  9992",
    "line2": "2 50486  87.9183 332.5256 0002083  80.9104 279.2264 13.18685808223560"
  },
  {
    "name": "ONEWEB-0407",
    "noradId": "50487",
    "line1": "1 50487U 21132U   26182.83670482  .00000056  00000+0  10902-3 0  9995",
    "line2": "2 50487  87.9185 332.5345 0001793 101.1498 258.9836 13.18687552223490"
  },
  {
    "name": "ONEWEB-0409",
    "noradId": "50488",
    "line1": "1 50488U 21132V   26182.90249384  .00000154  00000+0  39755-3 0  9993",
    "line2": "2 50488  87.8886  18.1260 0002056  83.3674 276.7688 13.11417712217512"
  },
  {
    "name": "ONEWEB-0412",
    "noradId": "50489",
    "line1": "1 50489U 21132W   26182.90077648  .00000033  00000+0  51685-4 0  9999",
    "line2": "2 50489  87.9182 332.5300 0001534  96.3063 263.8244 13.18686050223597"
  },
  {
    "name": "ONEWEB-0413",
    "noradId": "50490",
    "line1": "1 50490U 21132X   26182.90584256  .00000069  00000+0  14182-3 0  9998",
    "line2": "2 50490  87.9173 332.5266 0001603 101.2346 258.8966 13.18686708223536"
  },
  {
    "name": "ONEWEB-0414",
    "noradId": "50491",
    "line1": "1 50491U 21132Y   26182.89066223 -.00000046  00000+0 -14998-3 0  9998",
    "line2": "2 50491  87.9186 332.5128 0001708  92.4429 267.6899 13.18685903223569"
  },
  {
    "name": "ONEWEB-0417",
    "noradId": "50492",
    "line1": "1 50492U 21132Z   26182.89909012  .00000027  00000+0  35966-4 0  9997",
    "line2": "2 50492  87.9178 332.5298 0001965  89.8244 270.3114 13.18686472223540"
  },
  {
    "name": "ONEWEB-0418",
    "noradId": "50493",
    "line1": "1 50493U 21132AA  26182.90906280  .00000060  00000+0  11912-3 0  9995",
    "line2": "2 50493  87.9181 332.5283 0002018  88.9801 271.1562 13.18685505223607"
  },
  {
    "name": "ONEWEB-0419",
    "noradId": "50494",
    "line1": "1 50494U 21132AB  26182.92788939 -.00000009  00000+0 -56715-4 0  9993",
    "line2": "2 50494  87.9185 332.5243 0002143  94.7758 265.3619 13.18665445223523"
  },
  {
    "name": "ONEWEB-0420",
    "noradId": "50495",
    "line1": "1 50495U 21132AC  26182.89233740 -.00000016  00000+0 -73188-4 0  9996",
    "line2": "2 50495  87.9178 332.5331 0001812 101.9428 258.1908 13.18686758223511"
  },
  {
    "name": "ONEWEB-0421",
    "noradId": "50496",
    "line1": "1 50496U 21132AD  26182.88560739  .00000014  00000+0  31489-5 0  9992",
    "line2": "2 50496  87.9179 332.5322 0001541  87.9514 272.1795 13.18685668223554"
  },
  {
    "name": "ONEWEB-0424",
    "noradId": "50497",
    "line1": "1 50497U 21132AE  26182.92270033 -.00000067  00000+0 -20158-3 0  9992",
    "line2": "2 50497  87.9182 332.5237 0002233  96.9950 263.1436 13.18685841223585"
  },
  {
    "name": "ONEWEB-0426",
    "noradId": "50498",
    "line1": "1 50498U 21132AF  26182.88138421  .00000067  00000+0  13613-3 0  9998",
    "line2": "2 50498  87.9186 332.5230 0001774  73.2673 286.8654 13.18685600223523"
  },
  {
    "name": "ONEWEB-0427",
    "noradId": "50499",
    "line1": "1 50499U 21132AG  26182.84513843 -.00000024  00000+0 -92884-4 0  9993",
    "line2": "2 50499  87.9187 332.5193 0001918  89.0581 271.0771 13.18685694223547"
  },
  {
    "name": "ONEWEB-0429",
    "noradId": "50500",
    "line1": "1 50500U 21132AH  26182.83164185 -.00000034  00000+0 -11859-3 0  9999",
    "line2": "2 50500  87.9178 332.5456 0001821 100.5292 259.6045 13.18686183223510"
  },
  {
    "name": "ONEWEB-0430",
    "noradId": "50501",
    "line1": "1 50501U 21132AJ  26182.89572364  .00000036  00000+0  58131-4 0  9993",
    "line2": "2 50501  87.9177 332.5310 0001879 104.4126 255.7215 13.18687784223560"
  }
]